CCSDS_OEM_VERS = 1.0
CREATION_DATE  = 2017-05-11T11:57:58
ORIGINATOR     = GMAT USER

META_START
OBJECT_NAME          = MOPSSat_alt_35785_km_RAAN_270_080
OBJECT_ID            = SatId
CENTER_NAME          = Earth
REF_FRAME            = EME2000
TIME_SYSTEM          = UTC
START_TIME           = 2017-01-01T00:00:00.000
USEABLE_START_TIME   = 2017-01-01T00:00:00.000
USEABLE_STOP_TIME    = 2017-01-02T00:00:00.000
STOP_TIME            = 2017-01-02T00:00:00.000
INTERPOLATION        = Lagrange
INTERPOLATION_DEGREE = 7 
META_STOP


                                                                                   

2017-01-01T18:47:30.000  -4.122093101604289e+04  -8.425715679724965e+03   2.073524218115488e+00   6.463002042612890e-01  -3.012715073969015e+00   7.337815516189294e-05
2017-01-01T18:47:40.000  -4.121445698323694e+04  -8.455840572944220e+03   2.074257520761944e+00   6.485062965583289e-01  -3.012263250904437e+00   7.328236219536774e-05
2017-01-01T18:47:50.000  -4.120796089105984e+04  -8.485960939580013e+03   2.074989865150397e+00   6.507120887473445e-01  -3.011809805953650e+00   7.318650475272218e-05
2017-01-01T18:48:00.000  -4.120144274251904e+04  -8.516076763414432e+03   2.075721250636315e+00   6.529175796271309e-01  -3.011354739291932e+00   7.309058287638374e-05
2017-01-01T18:48:10.000  -4.119490254062684e+04  -8.546188028264751e+03   2.076451676576404e+00   6.551227679989958e-01  -3.010898051094974e+00   7.299459660871946e-05
2017-01-01T18:48:20.000  -4.118834028838409e+04  -8.576294718055078e+03   2.077181142330320e+00   6.573276526720030e-01  -3.010439741537712e+00   7.289854599181156e-05
2017-01-01T18:48:30.000  -4.118175598880408e+04  -8.606396816708781e+03   2.077909647258078e+00   6.595322324550992e-01  -3.009979810796024e+00   7.280243106779536e-05
2017-01-01T18:48:40.000  -4.117514964491510e+04  -8.636494308137701e+03   2.078637190719801e+00   6.617365061563197e-01  -3.009518259046896e+00   7.270625187889719e-05
2017-01-01T18:48:50.000  -4.116852125976573e+04  -8.666587176211882e+03   2.079363772074938e+00   6.639404725805754e-01  -3.009055086468789e+00   7.261000846751872e-05
2017-01-01T18:49:00.000  -4.116187083643165e+04  -8.696675404735883e+03   2.080089390681746e+00   6.661441305279152e-01  -3.008590293242122e+00   7.251370087632604e-05
2017-01-01T18:49:10.000  -4.115519837799555e+04  -8.726758977537125e+03   2.080814045899410e+00   6.683474787999969e-01  -3.008123879547862e+00   7.241732914796174e-05
2017-01-01T18:49:20.000  -4.114850388763713e+04  -8.756837878069973e+03   2.081537737078578e+00   6.705505161710882e-01  -3.007655845573834e+00   7.232089332632850e-05
2017-01-01T18:49:30.000  -4.114178736852444e+04  -8.786912089895635e+03   2.082260463572843e+00   6.727532414232169e-01  -3.007186191507103e+00   7.222439345503649e-05
2017-01-01T18:49:40.000  -4.113504882385406e+04  -8.816981596503683e+03   2.082982224734465e+00   6.749556533330965e-01  -3.006714917536795e+00   7.212782957798015e-05
2017-01-01T18:49:50.000  -4.112828825669634e+04  -8.847046382003751e+03   2.083703019930984e+00   6.771577507227934e-01  -3.006242023843268e+00   7.203120173710993e-05
2017-01-01T18:50:00.000  -4.112150567014955e+04  -8.877106430435551e+03   2.084422848528640e+00   6.793595324091849e-01  -3.005767510608901e+00   7.193450997465420e-05
2017-01-01T18:50:10.000  -4.111470106730539e+04  -8.907161725925309e+03   2.085141709896150e+00   6.815609972154208e-01  -3.005291378015668e+00   7.183775433261598e-05
2017-01-01T18:50:20.000  -4.110787445133401e+04  -8.937212252295871e+03   2.085859603395262e+00   6.837621439423670e-01  -3.004813626251097e+00   7.174093485402460e-05
2017-01-01T18:50:30.000  -4.110102582542179e+04  -8.967257993356367e+03   2.086576528387806e+00   6.859629713898182e-01  -3.004334255503902e+00   7.164405158200693e-05
2017-01-01T18:50:40.000  -4.109415519277002e+04  -8.997298932901973e+03   2.087292484235643e+00   6.881634783564823e-01  -3.003853265963916e+00   7.154710455978658e-05
2017-01-01T18:50:50.000  -4.108726255666397e+04  -9.027335054425675e+03   2.088007470293906e+00   6.903636636188645e-01  -3.003370657826911e+00   7.145009383161730e-05
2017-01-01T18:51:00.000  -4.108034792038109e+04  -9.057366341506779e+03   2.088721485920152e+00   6.925635259597269e-01  -3.002886431288175e+00   7.135301944152645e-05
2017-01-01T18:51:10.000  -4.107341128722679e+04  -9.087392777657766e+03   2.089434530470745e+00   6.947630641568725e-01  -3.002400586545019e+00   7.125588143380934e-05
2017-01-01T18:51:20.000  -4.106645266037809e+04  -9.117414347001963e+03   2.090146603316950e+00   6.969622770327840e-01  -3.001913123785817e+00   7.115867985084376e-05
2017-01-01T18:51:30.000  -4.105947204303966e+04  -9.147431033595849e+03   2.090857703828824e+00   6.991611634049838e-01  -3.001424043200950e+00   7.106141473527500e-05
2017-01-01T18:51:40.000  -4.105246943840911e+04  -9.177442821582390e+03   2.091567831378884e+00   7.013597220972632e-01  -3.000933344980364e+00   7.096408612952327e-05
2017-01-01T18:51:50.000  -4.104544484976449e+04  -9.207449694801668e+03   2.092276985332771e+00   7.035579519111641e-01  -3.000441029319695e+00   7.086669407703174e-05
2017-01-01T18:52:00.000  -4.103839828040013e+04  -9.237451637080176e+03   2.092985165056213e+00   7.057558516471663e-01  -2.999947096415783e+00   7.076923862134293e-05
2017-01-01T18:52:10.000  -4.103132973362545e+04  -9.267448632230524e+03   2.093692369914981e+00   7.079534201046698e-01  -2.999451546466588e+00   7.067171980609463e-05
2017-01-01T18:52:20.000  -4.102423921283578e+04  -9.297440663763706e+03   2.094398599268208e+00   7.101506560609091e-01  -2.998954379676161e+00   7.057413767596585e-05
2017-01-01T18:52:30.000  -4.101712672141812e+04  -9.327427715276955e+03   2.095103852477435e+00   7.123475582993736e-01  -2.998455596248024e+00   7.047649227540656e-05
2017-01-01T18:52:40.000  -4.100999226278779e+04  -9.357409770300910e+03   2.095808128903032e+00   7.145441255986063e-01  -2.997955196387760e+00   7.037878364913646e-05
2017-01-01T18:52:50.000  -4.100283584022779e+04  -9.387386812976181e+03   2.096511427920093e+00   7.167403567817758e-01  -2.997453180291721e+00   7.028101183994507e-05
2017-01-01T18:53:00.000  -4.099565745704920e+04  -9.417358827376764e+03   2.097213748902536e+00   7.189362506671042e-01  -2.996949548158296e+00   7.018317689089038e-05
2017-01-01T18:53:10.000  -4.098845711655542e+04  -9.447325797663067e+03   2.097915091226712e+00   7.211318060790798e-01  -2.996444300185397e+00   7.008527884480402e-05
2017-01-01T18:53:20.000  -4.098123482213235e+04  -9.477287707693149e+03   2.098615454262190e+00   7.233270218199784e-01  -2.995937436576777e+00   6.998731774554318e-05
2017-01-01T18:53:30.000  -4.097399057718224e+04  -9.507244541311580e+03   2.099314837378636e+00   7.255218966910194e-01  -2.995428957537406e+00   6.988929363706550e-05
2017-01-01T18:53:40.000  -4.096672438512255e+04  -9.537196282349159e+03   2.100013239945767e+00   7.277164294923519e-01  -2.994918863273371e+00   6.979120656342294e-05
2017-01-01T18:53:50.000  -4.095943624945859e+04  -9.567142914335607e+03   2.100710661326758e+00   7.299106190019972e-01  -2.994407153997004e+00   6.969305656972113e-05
2017-01-01T18:54:00.000  -4.095212617368680e+04  -9.597084420886864e+03   2.101407100887169e+00   7.321044640042284e-01  -2.993893829920071e+00   6.959484370083306e-05
2017-01-01T18:54:10.000  -4.094479416133322e+04  -9.627020785549517e+03   2.102102557991345e+00   7.342979632781746e-01  -2.993378891256475e+00   6.949656800191414e-05
2017-01-01T18:54:20.000  -4.093744021578519e+04  -9.656951992487744e+03   2.102797032018378e+00   7.364911156481491e-01  -2.992862338210450e+00   6.939822951613949e-05
2017-01-01T18:54:30.000  -4.093006434046003e+04  -9.686878025794598e+03   2.103490522346096e+00   7.386839199331915e-01  -2.992344170988381e+00   6.929982828697170e-05
2017-01-01T18:54:40.000  -4.092266653876145e+04  -9.716798869669872e+03   2.104183028355212e+00   7.408763749600983e-01  -2.991824389795776e+00   6.920136435757515e-05
2017-01-01T18:54:50.000  -4.091524681419547e+04  -9.746714507941773e+03   2.104874549418148e+00   7.430684795283746e-01  -2.991302994845374e+00   6.910283777238909e-05
2017-01-01T18:55:00.000  -4.090780517027520e+04  -9.776624924461723e+03   2.105565084908274e+00   7.452602324391623e-01  -2.990779986350481e+00   6.900424857582939e-05
2017-01-01T18:55:10.000  -4.090034161054206e+04  -9.806530103016257e+03   2.106254634197839e+00   7.474516324887853e-01  -2.990255364526451e+00   6.890559681257883e-05
2017-01-01T18:55:20.000  -4.089285613856144e+04  -9.836430027351313e+03   2.106943196658603e+00   7.496426784705255e-01  -2.989729129590387e+00   6.880688252750540e-05
2017-01-01T18:55:30.000  -4.088534875791390e+04  -9.866324681201695e+03   2.107630771662462e+00   7.518333691767856e-01  -2.989201281760521e+00   6.870810576556794e-05
2017-01-01T18:55:40.000  -4.087781947219267e+04  -9.896214048301925e+03   2.108317358581701e+00   7.540237033998831e-01  -2.988671821256033e+00   6.860926657177811e-05
2017-01-01T18:55:50.000  -4.087026828497742e+04  -9.926098112493306e+03   2.109002956791485e+00   7.562136799398952e-01  -2.988140748295222e+00   6.851036499085707e-05
2017-01-01T18:56:00.000  -4.086269519985133e+04  -9.955976857652458e+03   2.109687565668182e+00   7.584032975994223e-01  -2.987608063096685e+00   6.841140106746035e-05
2017-01-01T18:56:10.000  -4.085510022040125e+04  -9.985850267691356e+03   2.110371184589375e+00   7.605925551835926e-01  -2.987073765879349e+00   6.831237484618138e-05
2017-01-01T18:56:20.000  -4.084748335019880e+04  -1.001571832662839e+04   2.111053812935442e+00   7.627814515052692e-01  -2.986537856861116e+00   6.821328637130493e-05
2017-01-01T18:56:30.000  -4.083984459282812e+04  -1.004558101848166e+04   2.111735450087160e+00   7.649699853772294e-01  -2.986000336260841e+00   6.811413568717117e-05
